SL-4 R/B                
1 39679U 14021B   26045.50842798  .00013018  00000+0  29523-3 0  9998
2 39679  51.6068  90.2975 0098952  18.4928 341.9612 15.38403015652705
ALOS-2                  
1 39766U 14029A   26045.85896994  .00000237  00000+0  38608-4 0  9992
2 39766  97.9208 144.7852 0001620 103.7073 256.4319 14.79455308633490
YAOGAN-29               
1 41038U 15069A   26045.85373347  .00000356  00000+0  50493-4 0  9992
2 41038  98.0176  74.2200 0002878  74.3099 285.8431 14.82969177552491
ASTRO-H (HITOMI)        
1 41337U 16012A   26045.62902583  .00003253  00000+0  19039-3 0  9997
2 41337  30.9987 145.3423 0009842 100.7351 259.4395 15.09834383548747
HXMT (HUIYAN)           
1 42758U 17034A   26045.73732479  .00006430  00000+0  32599-3 0  9993
2 42758  43.0140 144.2478 0030592  89.4606 270.9747 15.17161209479056
CZ-2C R/B               
1 43521U 18054D   26045.56694634  .00428756  79187-4  73347-3 0  9998
2 43521  35.1279 101.4799 0011780  83.6812 276.5270 16.01291086425183
SAOCOM 1A               
1 43641U 18076A   26045.80689244  .00000446  00000+0  62601-4 0  9990
2 43641  97.8873 234.3032 0001351  81.6842 278.4524 14.82141675397974
H-2A R/B                
1 43682U 18084L   26045.54864640  .00017459  00000+0  43012-3 0  9996
2 43682  98.8756 258.0087 0026343 102.7831 257.6357 15.40314146402211
SAOCOM 1B               
1 46265U 20059A   26045.83815782  .00000482  00000+0  67108-4 0  9997
2 46265  97.8873 233.4321 0001482  85.4651 274.6731 14.82146500295365
CSS (TIANHE)            
1 48274U 21035A   26045.54273357  .00017551  00000+0  21777-3 0  9994
2 48274  41.4682 348.8930 0004119  92.6831 267.4479 15.59606555273997
COSMOS 2550             
1 48865U 21056A   26045.89030187 -.00000042  00000+0  45523-5 0  9998
2 48865  67.1422 109.8973 0008401 269.4635  90.5557 15.33828936259960
CZ-2C R/B               
1 52794U 22058K   26045.48279318  .00033721  00000+0  52378-3 0  9996
2 52794  50.1885  77.5121 0042125 102.0541 258.5154 15.52570581206520
