CCSDS_OMM_VERS = 2.0
CREATION_DATE  = 
ORIGINATOR     = 

OBJECT_NAME    = SL-4 R/B
OBJECT_ID      = 2014-021B
CENTER_NAME    = EARTH
REF_FRAME      = TEME
TIME_SYSTEM    = UTC
MEAN_ELEMENT_THEORY = SGP/SGP4

EPOCH          = 2026-02-14T12:12:08.177472
MEAN_MOTION    = 15.38403015
ECCENTRICITY   = .0098952
INCLINATION    = 51.6068
RA_OF_ASC_NODE = 90.2975
ARG_OF_PERICENTER = 18.4928
MEAN_ANOMALY   = 341.9612

EPHEMERIS_TYPE = 0
CLASSIFICATION_TYPE = U
NORAD_CAT_ID   = 39679
ELEMENT_SET_NO = 999
REV_AT_EPOCH   = 65270
BSTAR          = .29523E-3
MEAN_MOTION_DOT = .13018E-3
MEAN_MOTION_DDOT = 0

CCSDS_OMM_VERS = 2.0
CREATION_DATE  = 
ORIGINATOR     = 

OBJECT_NAME    = ALOS-2
OBJECT_ID      = 2014-029A
CENTER_NAME    = EARTH
REF_FRAME      = TEME
TIME_SYSTEM    = UTC
MEAN_ELEMENT_THEORY = SGP/SGP4

EPOCH          = 2026-02-14T20:36:55.002816
MEAN_MOTION    = 14.79455308
ECCENTRICITY   = .000162
INCLINATION    = 97.9208
RA_OF_ASC_NODE = 144.7852
ARG_OF_PERICENTER = 103.7073
MEAN_ANOMALY   = 256.4319

EPHEMERIS_TYPE = 0
CLASSIFICATION_TYPE = U
NORAD_CAT_ID   = 39766
ELEMENT_SET_NO = 999
REV_AT_EPOCH   = 63349
BSTAR          = .38608E-4
MEAN_MOTION_DOT = .237E-5
MEAN_MOTION_DDOT = 0

CCSDS_OMM_VERS = 2.0
CREATION_DATE  = 
ORIGINATOR     = 

OBJECT_NAME    = YAOGAN-29
OBJECT_ID      = 2015-069A
CENTER_NAME    = EARTH
REF_FRAME      = TEME
TIME_SYSTEM    = UTC
MEAN_ELEMENT_THEORY = SGP/SGP4

EPOCH          = 2026-02-14T20:29:22.571808
MEAN_MOTION    = 14.82969177
ECCENTRICITY   = .0002878
INCLINATION    = 98.0176
RA_OF_ASC_NODE = 74.2200
ARG_OF_PERICENTER = 74.3099
MEAN_ANOMALY   = 285.8431

EPHEMERIS_TYPE = 0
CLASSIFICATION_TYPE = U
NORAD_CAT_ID   = 41038
ELEMENT_SET_NO = 999
REV_AT_EPOCH   = 55249
BSTAR          = .50493E-4
MEAN_MOTION_DOT = .356E-5
MEAN_MOTION_DDOT = 0

CCSDS_OMM_VERS = 2.0
CREATION_DATE  = 
ORIGINATOR     = 

OBJECT_NAME    = ASTRO-H (HITOMI)
OBJECT_ID      = 2016-012A
CENTER_NAME    = EARTH
REF_FRAME      = TEME
TIME_SYSTEM    = UTC
MEAN_ELEMENT_THEORY = SGP/SGP4

EPOCH          = 2026-02-14T15:05:47.831712
MEAN_MOTION    = 15.09834383
ECCENTRICITY   = .0009842
INCLINATION    = 30.9987
RA_OF_ASC_NODE = 145.3423
ARG_OF_PERICENTER = 100.7351
MEAN_ANOMALY   = 259.4395

EPHEMERIS_TYPE = 0
CLASSIFICATION_TYPE = U
NORAD_CAT_ID   = 41337
ELEMENT_SET_NO = 999
REV_AT_EPOCH   = 54874
BSTAR          = .19039E-3
MEAN_MOTION_DOT = .3253E-4
MEAN_MOTION_DDOT = 0

CCSDS_OMM_VERS = 2.0
CREATION_DATE  = 
ORIGINATOR     = 

OBJECT_NAME    = HXMT (HUIYAN)
OBJECT_ID      = 2017-034A
CENTER_NAME    = EARTH
REF_FRAME      = TEME
TIME_SYSTEM    = UTC
MEAN_ELEMENT_THEORY = SGP/SGP4

EPOCH          = 2026-02-14T17:41:44.861856
MEAN_MOTION    = 15.17161209
ECCENTRICITY   = .0030592
INCLINATION    = 43.0140
RA_OF_ASC_NODE = 144.2478
ARG_OF_PERICENTER = 89.4606
MEAN_ANOMALY   = 270.9747

EPHEMERIS_TYPE = 0
CLASSIFICATION_TYPE = U
NORAD_CAT_ID   = 42758
ELEMENT_SET_NO = 999
REV_AT_EPOCH   = 47905
BSTAR          = .32599E-3
MEAN_MOTION_DOT = .643E-4
MEAN_MOTION_DDOT = 0

CCSDS_OMM_VERS = 2.0
CREATION_DATE  = 
ORIGINATOR     = 

OBJECT_NAME    = CZ-2C R/B
OBJECT_ID      = 2018-054D
CENTER_NAME    = EARTH
REF_FRAME      = TEME
TIME_SYSTEM    = UTC
MEAN_ELEMENT_THEORY = SGP/SGP4

EPOCH          = 2026-02-14T13:36:24.163776
MEAN_MOTION    = 16.01291086
ECCENTRICITY   = .001178
INCLINATION    = 35.1279
RA_OF_ASC_NODE = 101.4799
ARG_OF_PERICENTER = 83.6812
MEAN_ANOMALY   = 276.5270

EPHEMERIS_TYPE = 0
CLASSIFICATION_TYPE = U
NORAD_CAT_ID   = 43521
ELEMENT_SET_NO = 999
REV_AT_EPOCH   = 42518
BSTAR          = .73347E-3
MEAN_MOTION_DOT = .428756E-2
MEAN_MOTION_DDOT = .79187E-4

CCSDS_OMM_VERS = 2.0
CREATION_DATE  = 
ORIGINATOR     = 

OBJECT_NAME    = SAOCOM 1A
OBJECT_ID      = 2018-076A
CENTER_NAME    = EARTH
REF_FRAME      = TEME
TIME_SYSTEM    = UTC
MEAN_ELEMENT_THEORY = SGP/SGP4

EPOCH          = 2026-02-14T19:21:55.506816
MEAN_MOTION    = 14.82141675
ECCENTRICITY   = .0001351
INCLINATION    = 97.8873
RA_OF_ASC_NODE = 234.3032
ARG_OF_PERICENTER = 81.6842
MEAN_ANOMALY   = 278.4524

EPHEMERIS_TYPE = 0
CLASSIFICATION_TYPE = U
NORAD_CAT_ID   = 43641
ELEMENT_SET_NO = 999
REV_AT_EPOCH   = 39797
BSTAR          = .62601E-4
MEAN_MOTION_DOT = .446E-5
MEAN_MOTION_DDOT = 0

CCSDS_OMM_VERS = 2.0
CREATION_DATE  = 
ORIGINATOR     = 

OBJECT_NAME    = H-2A R/B
OBJECT_ID      = 2018-084L
CENTER_NAME    = EARTH
REF_FRAME      = TEME
TIME_SYSTEM    = UTC
MEAN_ELEMENT_THEORY = SGP/SGP4

EPOCH          = 2026-02-14T13:10:03.048960
MEAN_MOTION    = 15.40314146
ECCENTRICITY   = .0026343
INCLINATION    = 98.8756
RA_OF_ASC_NODE = 258.0087
ARG_OF_PERICENTER = 102.7831
MEAN_ANOMALY   = 257.6357

EPHEMERIS_TYPE = 0
CLASSIFICATION_TYPE = U
NORAD_CAT_ID   = 43682
ELEMENT_SET_NO = 999
REV_AT_EPOCH   = 40221
BSTAR          = .43012E-3
MEAN_MOTION_DOT = .17459E-3
MEAN_MOTION_DDOT = 0

CCSDS_OMM_VERS = 2.0
CREATION_DATE  = 
ORIGINATOR     = 

OBJECT_NAME    = SAOCOM 1B
OBJECT_ID      = 2020-059A
CENTER_NAME    = EARTH
REF_FRAME      = TEME
TIME_SYSTEM    = UTC
MEAN_ELEMENT_THEORY = SGP/SGP4

EPOCH          = 2026-02-14T20:06:56.835648
MEAN_MOTION    = 14.82146500
ECCENTRICITY   = .0001482
INCLINATION    = 97.8873
RA_OF_ASC_NODE = 233.4321
ARG_OF_PERICENTER = 85.4651
MEAN_ANOMALY   = 274.6731

EPHEMERIS_TYPE = 0
CLASSIFICATION_TYPE = U
NORAD_CAT_ID   = 46265
ELEMENT_SET_NO = 999
REV_AT_EPOCH   = 29536
BSTAR          = .67108E-4
MEAN_MOTION_DOT = .482E-5
MEAN_MOTION_DDOT = 0

CCSDS_OMM_VERS = 2.0
CREATION_DATE  = 
ORIGINATOR     = 

OBJECT_NAME    = CSS (TIANHE)
OBJECT_ID      = 2021-035A
CENTER_NAME    = EARTH
REF_FRAME      = TEME
TIME_SYSTEM    = UTC
MEAN_ELEMENT_THEORY = SGP/SGP4

EPOCH          = 2026-02-14T13:01:32.180448
MEAN_MOTION    = 15.59606555
ECCENTRICITY   = .0004119
INCLINATION    = 41.4682
RA_OF_ASC_NODE = 348.8930
ARG_OF_PERICENTER = 92.6831
MEAN_ANOMALY   = 267.4479

EPHEMERIS_TYPE = 0
CLASSIFICATION_TYPE = U
NORAD_CAT_ID   = 48274
ELEMENT_SET_NO = 999
REV_AT_EPOCH   = 27399
BSTAR          = .21777E-3
MEAN_MOTION_DOT = .17551E-3
MEAN_MOTION_DDOT = 0

CCSDS_OMM_VERS = 2.0
CREATION_DATE  = 
ORIGINATOR     = 

OBJECT_NAME    = COSMOS 2550
OBJECT_ID      = 2021-056A
CENTER_NAME    = EARTH
REF_FRAME      = TEME
TIME_SYSTEM    = UTC
MEAN_ELEMENT_THEORY = SGP/SGP4

EPOCH          = 2026-02-14T21:22:02.081568
MEAN_MOTION    = 15.33828936
ECCENTRICITY   = .0008401
INCLINATION    = 67.1422
RA_OF_ASC_NODE = 109.8973
ARG_OF_PERICENTER = 269.4635
MEAN_ANOMALY   = 90.5557

EPHEMERIS_TYPE = 0
CLASSIFICATION_TYPE = U
NORAD_CAT_ID   = 48865
ELEMENT_SET_NO = 999
REV_AT_EPOCH   = 25996
BSTAR          = .45523E-5
MEAN_MOTION_DOT = -.42E-6
MEAN_MOTION_DDOT = 0

CCSDS_OMM_VERS = 2.0
CREATION_DATE  = 
ORIGINATOR     = 

OBJECT_NAME    = CZ-2C R/B
OBJECT_ID      = 2022-058K
CENTER_NAME    = EARTH
REF_FRAME      = TEME
TIME_SYSTEM    = UTC
MEAN_ELEMENT_THEORY = SGP/SGP4

EPOCH          = 2026-02-14T11:35:13.330752
MEAN_MOTION    = 15.52570581
ECCENTRICITY   = .0042125
INCLINATION    = 50.1885
RA_OF_ASC_NODE = 77.5121
ARG_OF_PERICENTER = 102.0541
MEAN_ANOMALY   = 258.5154

EPHEMERIS_TYPE = 0
CLASSIFICATION_TYPE = U
NORAD_CAT_ID   = 52794
ELEMENT_SET_NO = 999
REV_AT_EPOCH   = 20652
BSTAR          = .52378E-3
MEAN_MOTION_DOT = .33721E-3
MEAN_MOTION_DDOT = 0

